OBJECT_NAME,OBJECT_ID,EPOCH,MEAN_MOTION,ECCENTRICITY,INCLINATION,RA_OF_ASC_NODE,ARG_OF_PERICENTER,MEAN_ANOMALY,EPHEMERIS_TYPE,CLASSIFICATION_TYPE,NORAD_CAT_ID,ELEMENT_SET_NO,REV_AT_EPOCH,BSTAR,MEAN_MOTION_DOT,MEAN_MOTION_DDOT
CUBEBUG-2 (LO-74),2013-066AA,2026-06-14T20:27:47.606112,14.93744304,.0058552,97.8904,114.8208,36.5594,323.9600,0,U,39440,999,67664,.38675E-3,.4175E-4,0
FUNCUBE-1 (AO-73),2013-066AE,2026-06-14T20:51:19.885824,15.09465367,.0035429,97.8271,137.2664,209.1760,150.7489,0,U,39444,999,67931,.41591E-3,.669E-4,0
UWE-3,2013-066AG,2026-06-14T19:25:31.374624,14.97007905,.0047958,97.8691,121.8670,329.0544,30.7853,0,U,39446,999,67722,.35106E-3,.4072E-4,0
UNISAT-6,2014-033C,2026-06-14T09:02:24.334656,14.88233320,.00463255,97.7871,318.1381,78.3311,282.3100,0,U,40012,999,64574,.32185713E-3,.2974E-4,0
DUCHIFAT-1,2014-033M,2026-06-14T15:43:04.340640,15.64143507,.0003201,98.0472,224.4598,116.2617,243.8969,0,U,40021,999,65535,.10079E-2,.96402E-3,0
QB50P1,2014-033R,2026-06-14T18:39:29.700576,15.18228731,.000763,98.0959,176.7542,224.7653,135.2964,0,U,40025,999,65266,.3969E-3,.8055E-4,0
LILACSAT-2,2015-049K,2026-06-14T21:15:30.946176,15.51379523,.0005394,97.4647,202.6397,256.1221,103.9431,0,U,40908,999,59539,.28296E-3,.16572E-3,0
FOX-1A (AO-85),2015-058D,2026-06-14T16:04:10.530048,14.90959259,.0130289,64.7762,286.8077,57.5807,303.7830,0,U,40967,999,11319,.21146E-3,.2284E-4,0
CAS-2T & KS-1Q,2016-066G,2026-06-14T11:17:02.990400,14.44686169,.03427141,98.3821,241.2375,137.6929,225.1249,0,U,41847,999,50440,.23210323E-3,.1606E-4,0
RADFXSAT (FOX-1B),2017-073E,2026-06-14T21:25:39.686880,15.12688328,.0149905,97.4709,33.1549,337.2448,22.2183,0,U,43017,999,46504,.35586E-3,.8137E-4,0
DIWATA-2B,2018-084H,2026-06-14T20:03:32.662080,15.00444092,.0012338,98.1177,1.9424,177.7083,182.4199,0,U,43678,999,41586,.23024E-3,.2835E-4,0
ES'HAIL 2,2018-090A,2026-06-14T20:04:21.554112,1.00269664,.0001586,0.0256,7.5484,117.4904,104.9712,0,U,43700,999,2765,0,0,0
FOX-1CLIFF (AO-95),2018-099N,2026-06-14T15:39:43.360416,15.26665093,.0008247,97.4388,225.9077,7.1912,352.9444,0,U,43770,999,41283,.4105E-3,.1071E-3,0
ITASAT,2018-099AE,2026-06-14T17:11:12.945120,15.19030078,.0012365,97.4031,217.2768,9.0773,351.0683,0,U,43786,999,41253,.28016E-3,.5811E-4,0
JY1SAT (JO-97),2018-099AX,2026-06-14T03:49:49.540224,15.33568110,.00042143,97.4134,227.9830,277.2169,82.8595,0,U,43803,999,41316,.5156255E-3,.16674E-3,0
UWE-4,2018-111E,2026-06-14T07:15:43.547040,15.45969448,.0006031,97.5859,93.5612,355.2213,4.8977,0,U,43880,999,41033,.66149013E-3,.3225E-3,0
TIANYAN 01,2019-093C,2026-06-14T19:45:44.734752,14.86516706,.001507,97.7537,238.1129,94.1051,266.1887,0,U,44881,999,35106,.14006E-3,.1188E-4,0
RS-44 & BREEZE-KM R/B,2019-096E,2026-06-14T17:42:37.247904,12.79748816,.0218072,82.5218,341.3328,149.8762,211.5093,0,U,44909,999,30203,.11257E-4,.15E-6,0
SALSAT,2020-068K,2026-06-14T12:41:54.564000,15.29765944,.0008235,97.8843,168.4319,319.4661,40.5964,0,U,46495,999,31495,.24454E-3,.6973E-4,0
XW-3 (CAS-9),2021-131B,2026-06-14T19:59:48.138720,14.41355659,.0005348,98.4983,258.2354,101.8886,258.2903,0,U,50466,999,23477,.17008E-3,.507E-5,0
GREENCUBE (IO-117),2022-080E,2026-06-13T07:02:28.697280,6.42583230,.00089108,70.1444,299.5995,290.4576,69.5127,0,U,53109,999,9181,0,-.3E-7,0
UMKA 1 (RS40S),2023-091G,2026-06-14T18:59:05.627904,15.20793943,.0014164,97.5054,224.4972,125.1257,235.1308,0,U,57172,999,16364,.27859E-3,.6087E-4,0
CUBESX-HSE 3 (RS42S),2023-091N,2026-06-14T19:42:33.056352,15.31163398,.001208,97.5098,231.3783,101.9731,258.2864,0,U,57178,999,16406,.41085E-3,.12322E-3,0
MONITOR-3 (RS58S),2023-091Q,2026-06-14T20:10:18.659136,15.27801807,.0013135,97.5090,229.2690,107.9985,252.2687,0,U,57180,999,16393,.36489E-3,.9859E-4,0
MONITOR-4 (RS57S),2023-091S,2026-06-14T19:40:20.428032,15.27886529,.0013109,97.5083,229.2192,108.3747,251.8919,0,U,57182,999,16393,.35317E-3,.9564E-4,0
MONITOR-2 (RS39S),2023-091U,2026-06-14T19:25:22.419264,15.18891187,.0012659,97.5076,224.1074,118.2703,241.9810,0,U,57184,999,16359,.21583E-3,.4442E-4,0
SVYATOBOR 1 (RS60S),2023-091X,2026-06-14T19:56:16.440576,15.26580849,.0010906,97.5095,229.6345,101.4406,258.8057,0,U,57187,999,16395,.32109E-3,.8342E-4,0
VIZARD-METEO (RS38S),2023-091Z,2026-06-14T20:49:11.218080,15.35962719,.0008401,97.5098,235.3058,84.6116,275.6085,0,U,57189,999,16433,.46411E-3,.16199E-3,0
POLYTECH-UNIVERSE 3 (RS46S),2023-091AB,2026-06-14T20:04:59.950272,15.19093434,.0016752,97.5052,223.6393,134.2177,226.0437,0,U,57191,999,16359,.24496E-3,.5089E-4,0
UTMN 2 (RS27S),2023-091AP,2026-06-14T20:09:44.299584,15.32002880,.0009384,97.5094,233.0283,90.8020,269.4296,0,U,57203,999,16418,.39079E-3,.12017E-3,0
